start=new Date('2023-02-05T00:00:00.000Z').valueOf();
sats=[{"REV_AT_EPOCH":"17027","CENTER_NAME":"EARTH","RCS_SIZE":"LARGE","OBJECT_ID":"2020-001BL","PERIOD":"95.593","BSTAR":"0.00008633700000","TIME_SYSTEM":"UTC","MEAN_ELEMENT_THEORY":"SGP4","GP_ID":"224437580","TLE_LINE1":"1 44972U 20001BL  23035.87499373  .00001004  00000-0  86337-4 0  9998","RA_OF_ASC_NODE":"334.0684","NORAD_CAT_ID":"44972","EPHEMERIS_TYPE":"0","ELEMENT_SET_NO":"999","CLASSIFICATION_TYPE":"U","APOAPSIS":"548.299","LAUNCH_DATE":"2020-01-07","ECCENTRICITY":"0.00015210","OBJECT_TYPE":"PAYLOAD","MEAN_MOTION_DDOT":"0.0000000000000","COUNTRY_CODE":"US","MEAN_MOTION_DOT":"0.00001004","FILE":"3772514","MEAN_ANOMALY":"256.2591","OBJECT_NAME":"STARLINK-1107","SEMIMAJOR_AXIS":"6925.380","SITE":"AFETR","PERIAPSIS":"546.192","DECAY_DATE":null,"REF_FRAME":"TEME","ARG_OF_PERICENTER":"103.8567","INCLINATION":"53.0561","MEAN_MOTION":"15.06389654","TLE_LINE2":"2 44972  53.0561 334.0684 0001521 103.8567 256.2591 15.06389654170279","EPOCH":"2023-02-04T20:59:59.458272"},{"RCS_SIZE":"LARGE","OBJECT_ID":"2020-001BM","PERIOD":"95.592","REV_AT_EPOCH":"17026","CENTER_NAME":"EARTH","TLE_LINE1":"1 44973U 20001BM  23035.85287553  .00001467  00000-0  11739-3 0  9998","GP_ID":"224437829","RA_OF_ASC_NODE":"334.1664","NORAD_CAT_ID":"44973","ELEMENT_SET_NO":"999","CLASSIFICATION_TYPE":"U","EPHEMERIS_TYPE":"0","APOAPSIS":"548.125","LAUNCH_DATE":"2020-01-07","BSTAR":"0.00011739000000","TIME_SYSTEM":"UTC","MEAN_ELEMENT_THEORY":"SGP4","MEAN_MOTION_DOT":"0.00001467","COUNTRY_CODE":"US","FILE":"3772514","MEAN_ANOMALY":"278.4418","ECCENTRICITY":"0.00013120","OBJECT_TYPE":"PAYLOAD","MEAN_MOTION_DDOT":"0.0000000000000","DECAY_DATE":null,"REF_FRAME":"TEME","PERIAPSIS":"546.308","INCLINATION":"53.0551","ARG_OF_PERICENTER":"81.6720","MEAN_MOTION":"15.06399089","TLE_LINE2":"2 44973  53.0551 334.1664 0001312  81.6720 278.4418 15.06399089170266","EPOCH":"2023-02-04T20:28:08.445792","OBJECT_NAME":"STARLINK-1115","SEMIMAJOR_AXIS":"6925.351","SITE":"AFETR"},{"TIME_SYSTEM":"UTC","BSTAR":"0.00020009000000","MEAN_ELEMENT_THEORY":"SGP4","RA_OF_ASC_NODE":"293.9778","TLE_LINE1":"1 45044U 20006A   23035.89341796  .00002700  00000-0  20009-3 0  9998","GP_ID":"224438083","NORAD_CAT_ID":"45044","ELEMENT_SET_NO":"999","EPHEMERIS_TYPE":"0","CLASSIFICATION_TYPE":"U","LAUNCH_DATE":"2020-01-29","APOAPSIS":"547.989","CENTER_NAME":"EARTH","REV_AT_EPOCH":"16660","OBJECT_ID":"2020-006A","RCS_SIZE":"LARGE","PERIOD":"95.592","SEMIMAJOR_AXIS":"6925.339","OBJECT_NAME":"STARLINK-1132","SITE":"AFETR","DECAY_DATE":null,"PERIAPSIS":"546.419","REF_FRAME":"TEME","INCLINATION":"53.0543","ARG_OF_PERICENTER":"98.8123","TLE_LINE2":"2 45044  53.0543 293.9778 0001134  98.8123 261.2994 15.06403089166602","MEAN_MOTION":"15.06403089","EPOCH":"2023-02-04T21:26:31.311744","ECCENTRICITY":"0.00011340","OBJECT_TYPE":"PAYLOAD","MEAN_MOTION_DDOT":"0.0000000000000","MEAN_MOTION_DOT":"0.00002700","COUNTRY_CODE":"US","MEAN_ANOMALY":"261.2994","FILE":"3772514"},{"SITE":"AFETR","SEMIMAJOR_AXIS":"6925.355","OBJECT_NAME":"STARLINK-1120","EPOCH":"2023-02-04T19:31:02.816256","MEAN_MOTION":"15.06398057","TLE_LINE2":"2 45045  53.0519 314.3363 0001262  92.0883 268.0251 15.06398057166312","DECAY_DATE":null,"ARG_OF_PERICENTER":"92.0883","PERIAPSIS":"546.346","INCLINATION":"53.0519","REF_FRAME":"TEME","MEAN_MOTION_DDOT":"0.0000000000000","OBJECT_TYPE":"PAYLOAD","ECCENTRICITY":"0.00012620","MEAN_ANOMALY":"268.0251","FILE":"3772514","MEAN_MOTION_DOT":"0.00000761","COUNTRY_CODE":"US","MEAN_ELEMENT_THEORY":"SGP4","TIME_SYSTEM":"UTC","BSTAR":"0.00006996900000","LAUNCH_DATE":"2020-01-29","APOAPSIS":"548.093","CLASSIFICATION_TYPE":"U","ELEMENT_SET_NO":"999","EPHEMERIS_TYPE":"0","NORAD_CAT_ID":"45045","TLE_LINE1":"1 45045U 20006B   23035.81322704  .00000761  00000-0  69969-4 0  9993","RA_OF_ASC_NODE":"314.3363","GP_ID":"224438818","REV_AT_EPOCH":"16631","CENTER_NAME":"EARTH","PERIOD":"95.592","OBJECT_ID":"2020-006B","RCS_SIZE":"LARGE"},{"MEAN_ELEMENT_THEORY":"SGP4","BSTAR":"0.00235790000000","TIME_SYSTEM":"UTC","APOAPSIS":"466.679","LAUNCH_DATE":"2020-01-29","CLASSIFICATION_TYPE":"U","ELEMENT_SET_NO":"999","EPHEMERIS_TYPE":"0","NORAD_CAT_ID":"45046","GP_ID":"224437086","TLE_LINE1":"1 45046U 20006C   23035.93341827  .00079426  00000-0  23579-2 0  9993","RA_OF_ASC_NODE":"276.0686","CENTER_NAME":"EARTH","REV_AT_EPOCH":"16680","PERIOD":"93.866","RCS_SIZE":"LARGE","OBJECT_ID":"2020-006C","SITE":"AFETR","OBJECT_NAME":"STARLINK-1129","SEMIMAJOR_AXIS":"6841.703","EPOCH":"2023-02-04T22:24:07.338528","TLE_LINE2":"2 45046  52.9848 276.0686 0004547 203.8927 156.1863 15.34109675166805","MEAN_MOTION":"15.34109675","DECAY_DATE":null,"PERIAPSIS":"460.457","INCLINATION":"52.9848","ARG_OF_PERICENTER":"203.8927","REF_FRAME":"TEME","MEAN_MOTION_DDOT":"0.0000000000000","OBJECT_TYPE":"PAYLOAD","ECCENTRICITY":"0.00045470","FILE":"3772514","MEAN_ANOMALY":"156.1863","MEAN_MOTION_DOT":"0.00079426","COUNTRY_CODE":"US"},{"OBJECT_ID":"2020-006D","RCS_SIZE":"LARGE","PERIOD":"95.592","REV_AT_EPOCH":"16633","CENTER_NAME":"EARTH","ELEMENT_SET_NO":"999","CLASSIFICATION_TYPE":"U","EPHEMERIS_TYPE":"0","LAUNCH_DATE":"2020-01-29","APOAPSIS":"548.258","GP_ID":"224437336","TLE_LINE1":"1 45047U 20006D   23035.95055169  .00000983  00000-0  84857-4 0  9997","RA_OF_ASC_NODE":"313.7299","NORAD_CAT_ID":"45047","TIME_SYSTEM":"UTC","BSTAR":"0.00008485700000","MEAN_ELEMENT_THEORY":"SGP4","COUNTRY_CODE":"US","MEAN_MOTION_DOT":"0.00000983","MEAN_ANOMALY":"269.1529","FILE":"3772514","OBJECT_TYPE":"PAYLOAD","MEAN_MOTION_DDOT":"0.0000000000000","ECCENTRICITY":"0.00015480","EPOCH":"2023-02-04T22:48:47.666016","DECAY_DATE":null,"ARG_OF_PERICENTER":"90.9637","PERIAPSIS":"546.114","INCLINATION":"53.0539","REF_FRAME":"TEME","MEAN_MOTION":"15.06408976","TLE_LINE2":"2 45047  53.0539 313.7299 0001548  90.9637 269.1529 15.06408976166332","SITE":"AFETR","SEMIMAJOR_AXIS":"6925.321","OBJECT_NAME":"STARLINK-1131"},{"OBJECT_NAME":"STARLINK-1134","SEMIMAJOR_AXIS":"6925.358","SITE":"AFETR","DECAY_DATE":null,"PERIAPSIS":"546.259","REF_FRAME":"TEME","INCLINATION":"53.0548","ARG_OF_PERICENTER":"94.0159","MEAN_MOTION":"15.06396828","TLE_LINE2":"2 45048  53.0548 314.5811 0001392  94.0159 266.0989 15.06396828166308","EPOCH":"2023-02-04T18:12:47.541312","ECCENTRICITY":"0.00013920","OBJECT_TYPE":"PAYLOAD","MEAN_MOTION_DDOT":"0.0000000000000","COUNTRY_CODE":"US","MEAN_MOTION_DOT":"0.00002178","FILE":"3772514","MEAN_ANOMALY":"266.0989","BSTAR":"0.00016511000000","TIME_SYSTEM":"UTC","MEAN_ELEMENT_THEORY":"SGP4","RA_OF_ASC_NODE":"314.5811","TLE_LINE1":"1 45048U 20006E   23035.75888358  .00002178  00000-0  16511-3 0  9999","GP_ID":"224438583","NORAD_CAT_ID":"45048","ELEMENT_SET_NO":"999","EPHEMERIS_TYPE":"0","CLASSIFICATION_TYPE":"U","LAUNCH_DATE":"2020-01-29","APOAPSIS":"548.187","CENTER_NAME":"EARTH","REV_AT_EPOCH":"16630","RCS_SIZE":"LARGE","OBJECT_ID":"2020-006E","PERIOD":"95.592"},{"OBJECT_NAME":"STARLINK-1135","SEMIMAJOR_AXIS":"6889.163","SITE":"AFETR","DECAY_DATE":null,"PERIAPSIS":"510.322","INCLINATION":"53.0560","REF_FRAME":"TEME","ARG_OF_PERICENTER":"144.8924","TLE_LINE2":"2 45049  53.0560 302.3148 0001024 144.8924 215.2138 15.18284297166498","MEAN_MOTION":"15.18284297","EPOCH":"2023-02-04T21:59:01.469472","ECCENTRICITY":"0.00010240","OBJECT_TYPE":"PAYLOAD","MEAN_MOTION_DDOT":"0.0000000000000","COUNTRY_CODE":"US","MEAN_MOTION_DOT":"0.00034489","FILE":"3772514","MEAN_ANOMALY":"215.2138","BSTAR":"0.00166930000000","TIME_SYSTEM":"UTC","MEAN_ELEMENT_THEORY":"SGP4","TLE_LINE1":"1 45049U 20006F   23035.91598923  .00034489  00000-0  16693-2 0  9994","RA_OF_ASC_NODE":"302.3148","GP_ID":"224438319","NORAD_CAT_ID":"45049","CLASSIFICATION_TYPE":"U","ELEMENT_SET_NO":"999","EPHEMERIS_TYPE":"0","APOAPSIS":"511.733","LAUNCH_DATE":"2020-01-29","REV_AT_EPOCH":"16649","CENTER_NAME":"EARTH","RCS_SIZE":"LARGE","OBJECT_ID":"2020-006F","PERIOD":"94.844"},{"REV_AT_EPOCH":"16630","CENTER_NAME":"EARTH","RCS_SIZE":"LARGE","OBJECT_ID":"2020-006G","PERIOD":"95.592","BSTAR":"0.00033027000000","TIME_SYSTEM":"UTC","MEAN_ELEMENT_THEORY":"SGP4","CLASSIFICATION_TYPE":"U","ELEMENT_SET_NO":"999","EPHEMERIS_TYPE":"0","LAUNCH_DATE":"2020-01-29","APOAPSIS":"548.359","GP_ID":"224437587","TLE_LINE1":"1 45050U 20006G   23035.76994099  .00004642  00000-0  33027-3 0  9992","RA_OF_ASC_NODE":"314.5419","NORAD_CAT_ID":"45050","OBJECT_TYPE":"PAYLOAD","MEAN_MOTION_DDOT":"0.0000000000000","ECCENTRICITY":"0.00016920","COUNTRY_CODE":"US","MEAN_MOTION_DOT":"0.00004642","FILE":"3772514","MEAN_ANOMALY":"271.0636","SITE":"AFETR","OBJECT_NAME":"STARLINK-1140","SEMIMAJOR_AXIS":"6925.322","EPOCH":"2023-02-04T18:28:42.901536","PERIAPSIS":"546.015","DECAY_DATE":null,"REF_FRAME":"TEME","ARG_OF_PERICENTER":"89.0547","INCLINATION":"53.0546","TLE_LINE2":"2 45050  53.0546 314.5419 0001692  89.0547 271.0636 15.06408708166307","MEAN_MOTION":"15.06408708"},{"PERIAPSIS":"480.688","DECAY_DATE":null,"ARG_OF_PERICENTER":"169.3930","INCLINATION":"53.0591","REF_FRAME":"TEME","MEAN_MOTION":"15.27246017","TLE_LINE2":"2 45051  53.0591 290.9924 0004901 169.3930 190.7172 15.27246017166656","EPOCH":"2023-02-04T22:16:21.433440","OBJECT_NAME":"STARLINK-1141","SEMIMAJOR_AXIS":"6862.186","SITE":"AFETR","COUNTRY_CODE":"US","MEAN_MOTION_DOT":"0.00049725","FILE":"3772514","MEAN_ANOMALY":"190.7172","ECCENTRICITY":"0.00049010","OBJECT_TYPE":"PAYLOAD","MEAN_MOTION_DDOT":"0.0000000000000","TLE_LINE1":"1 45051U 20006H   23035.92802585  .00049725  00000-0  18380-2 0  9994","GP_ID":"224437836","RA_OF_ASC_NODE":"290.9924","NORAD_CAT_ID":"45051","EPHEMERIS_TYPE":"0","ELEMENT_SET_NO":"999","CLASSIFICATION_TYPE":"U","LAUNCH_DATE":"2020-01-29","APOAPSIS":"487.415","BSTAR":"0.00183800000000","TIME_SYSTEM":"UTC","MEAN_ELEMENT_THEORY":"SGP4","RCS_SIZE":"LARGE","OBJECT_ID":"2020-006H","PERIOD":"94.287","REV_AT_EPOCH":"16665","CENTER_NAME":"EARTH"}];
